{"type": "FeatureCollection", "features": [{"type": "Feature", "id": 500292574, "geometry": {"type": "Point", "coordinates": [1.484222, 43.718569]}, "properties": {"amenity": "hospital", "healthcare": "hospital", "name": "Clinique de Montberon", "ref:FR:FINESS": "310780119", "type:FR:FINESS": "161"}}, {"type": "Feature", "id": 579949071, "geometry": {"type": "Point", "coordinates": [1.525779, 43.842873]}, "properties": {"amenity": "hospital", "emergency": "no", "healthcare": "hospital", "healthcare:speciality": "physiatry", "name": "Clinique du Ch\u00e2teau de Vernhes", "ref:FR:FINESS": "310780374", "type:FR:FINESS": "109"}}, {"type": "Feature", "id": 1011424909, "geometry": {"type": "Point", "coordinates": [2.004169, 43.455668]}, "properties": {"addr:housenumber": "22", "addr:street": "Avenue Roger Ricalens", "amenity": "hospital", "contact:website": "http://www.hopital-revel.com/", "name": "Centre hospitalier de Revel", "ref:FR:FINESS": "310000336", "source": "Le minist\u00e8re des solidarit\u00e9s et de la sant\u00e9 - 03/2019", "wheelchair": "yes", "wikidata": "Q92062460"}}, {"type": "Feature", "id": 7367065726, "geometry": {"type": "Point", "coordinates": [1.440959, 43.619915]}, "properties": {"amenity": "hospital", "name": "H\u00f4pital de Jour Psy Adultes Negreneys Ch Marchant", "ref:FR:FINESS": "310794540", "short_name": "Hj Psy Adultes Negreneys Ch Marchant", "source": "Le minist\u00e8re des solidarit\u00e9s et de la sant\u00e9 - 03/2019"}}, {"type": "Feature", "id": 7710726913, "geometry": {"type": "Point", "coordinates": [1.484799, 43.57705]}, "properties": {"addr:city": "Toulouse", "addr:housenumber": "20", "addr:postcode": "31077", "addr:street": "Route de Revel", "amenity": "hospital", "healthcare": "hospital", "healthcare:speciality": "radiology", "name": "Centre d'Imagerie M\u00e9dicale Saint-Jean-Languedoc"}}, {"type": "Feature", "id": 8770943620, "geometry": {"type": "Point", "coordinates": [1.443508, 43.590594]}, "properties": {"amenity": "hospital", "operator:type": "private"}}, {"type": "Feature", "id": 9728938011, "geometry": {"type": "Point", "coordinates": [1.536248, 43.535238]}, "properties": {"amenity": "hospital", "description": "Secteur de psychiatrie infanto-juv\u00e9nile n\u00b03", "healthcare": "hospital", "name": "P\u00f4le Guidance Infantile", "operator": "Arseaa", "ref:FR:FINESS": "310018676", "ref:FR:SIRET": "77558121800846", "type:FR:FINESS": "292"}}, {"type": "Feature", "id": 9827478543, "geometry": {"type": "Point", "coordinates": [1.60867, 43.800482]}, "properties": {"addr:city": "Bessi\u00e8res", "addr:housenumber": "88", "addr:postcode": "31660", "addr:street": "Avenue du Pont", "amenity": "hospital", "healthcare": "hospital", "healthcare:speciality": "osteopathy", "name": "Julien Salesses - Ost\u00e9opathe"}}, {"type": "Feature", "id": 9903977710, "geometry": {"type": "Point", "coordinates": [1.468763, 43.552726]}, "properties": {"alt_name": "P\u00f4le Guidance Infantile", "amenity": "hospital", "healthcare": "hospital", "name": "H\u00f4pital de jour Les Bourdettes", "operator": "Arseaa", "ref:FR:FINESS": "310783030", "ref:FR:SIRET": "77558121800499", "type:FR:FINESS": "161", "website": "http://www.arseaa.org/etablissement/h\u00f4pital-de-jour-les-bourdettes"}}, {"type": "Feature", "id": 500292574, "geometry": {"type": "Point", "coordinates": [1.484222, 43.718569]}, "properties": {"amenity": "hospital", "healthcare": "hospital", "name": "Clinique de Montberon", "ref:FR:FINESS": "310780119", "type:FR:FINESS": "161"}}, {"type": "Feature", "id": 579949071, "geometry": {"type": "Point", "coordinates": [1.525779, 43.842873]}, "properties": {"amenity": "hospital", "emergency": "no", "healthcare": "hospital", "healthcare:speciality": "physiatry", "name": "Clinique du Ch\u00e2teau de Vernhes", "ref:FR:FINESS": "310780374", "type:FR:FINESS": "109"}}, {"type": "Feature", "id": 1011424909, "geometry": {"type": "Point", "coordinates": [2.004169, 43.455668]}, "properties": {"addr:housenumber": "22", "addr:street": "Avenue Roger Ricalens", "amenity": "hospital", "contact:website": "http://www.hopital-revel.com/", "name": "Centre hospitalier de Revel", "ref:FR:FINESS": "310000336", "source": "Le minist\u00e8re des solidarit\u00e9s et de la sant\u00e9 - 03/2019", "wheelchair": "yes", "wikidata": "Q92062460"}}, {"type": "Feature", "id": 7367065726, "geometry": {"type": "Point", "coordinates": [1.440959, 43.619915]}, "properties": {"amenity": "hospital", "name": "H\u00f4pital de Jour Psy Adultes Negreneys Ch Marchant", "ref:FR:FINESS": "310794540", "short_name": "Hj Psy Adultes Negreneys Ch Marchant", "source": "Le minist\u00e8re des solidarit\u00e9s et de la sant\u00e9 - 03/2019"}}, {"type": "Feature", "id": 7710726913, "geometry": {"type": "Point", "coordinates": [1.484799, 43.57705]}, "properties": {"addr:city": "Toulouse", "addr:housenumber": "20", "addr:postcode": "31077", "addr:street": "Route de Revel", "amenity": "hospital", "healthcare": "hospital", "healthcare:speciality": "radiology", "name": "Centre d'Imagerie M\u00e9dicale Saint-Jean-Languedoc"}}, {"type": "Feature", "id": 8770943620, "geometry": {"type": "Point", "coordinates": [1.443508, 43.590594]}, "properties": {"amenity": "hospital", "operator:type": "private"}}, {"type": "Feature", "id": 9728938011, "geometry": {"type": "Point", "coordinates": [1.536248, 43.535238]}, "properties": {"amenity": "hospital", "description": "Secteur de psychiatrie infanto-juv\u00e9nile n\u00b03", "healthcare": "hospital", "name": "P\u00f4le Guidance Infantile", "operator": "Arseaa", "ref:FR:FINESS": "310018676", "ref:FR:SIRET": "77558121800846", "type:FR:FINESS": "292"}}, {"type": "Feature", "id": 9827478543, "geometry": {"type": "Point", "coordinates": [1.60867, 43.800482]}, "properties": {"addr:city": "Bessi\u00e8res", "addr:housenumber": "88", "addr:postcode": "31660", "addr:street": "Avenue du Pont", "amenity": "hospital", "healthcare": "hospital", "healthcare:speciality": "osteopathy", "name": "Julien Salesses - Ost\u00e9opathe"}}, {"type": "Feature", "id": 9903977710, "geometry": {"type": "Point", "coordinates": [1.468763, 43.552726]}, "properties": {"alt_name": "P\u00f4le Guidance Infantile", "amenity": "hospital", "healthcare": "hospital", "name": "H\u00f4pital de jour Les Bourdettes", "operator": "Arseaa", "ref:FR:FINESS": "310783030", "ref:FR:SIRET": "77558121800499", "type:FR:FINESS": "161", "website": "http://www.arseaa.org/etablissement/h\u00f4pital-de-jour-les-bourdettes"}}]}